[{"OBJECT_NAME":"HAWK-8A","OBJECT_ID":"2024-066B","EPOCH":"2026-03-09T09:46:26.156352","MEAN_MOTION":14.98766556,"ECCENTRICITY":0.00042143,"INCLINATION":45.5937,"RA_OF_ASC_NODE":72.3645,"ARG_OF_PERICENTER":254.4969,"MEAN_ANOMALY":105.5447,"EPHEMERIS_TYPE":0,"CLASSIFICATION_TYPE":"U","NORAD_CAT_ID":59443,"ELEMENT_SET_NO":999,"REV_AT_EPOCH":10486,"BSTAR":0.0002089936,"MEAN_MOTION_DOT":2.325e-5,"MEAN_MOTION_DDOT":0},{"OBJECT_NAME":"STARLINK-36173","OBJECT_ID":"2025-304U","EPOCH":"2026-03-09T16:26:35.018592","MEAN_MOTION":14.99143783,"ECCENTRICITY":0.00036048,"INCLINATION":70.0013,"RA_OF_ASC_NODE":174.4831,"ARG_OF_PERICENTER":269.9682,"MEAN_ANOMALY":90.1065,"EPHEMERIS_TYPE":0,"CLASSIFICATION_TYPE":"U","NORAD_CAT_ID":67210,"ELEMENT_SET_NO":999,"REV_AT_EPOCH":1388,"BSTAR":0.00033818283,"MEAN_MOTION_DOT":4.03e-5,"MEAN_MOTION_DDOT":0}]
